[{"OBJECT_NAME":"SKYKRAFT-1A","OBJECT_ID":"2023-001AX","EPOCH":"2026-03-09T17:03:19.828224","MEAN_MOTION":15.28083228,"ECCENTRICITY":0.00112767,"INCLINATION":97.3349,"RA_OF_ASC_NODE":127.629,"ARG_OF_PERICENTER":121.5092,"MEAN_ANOMALY":238.7251,"EPHEMERIS_TYPE":0,"CLASSIFICATION_TYPE":"U","NORAD_CAT_ID":55054,"ELEMENT_SET_NO":999,"REV_AT_EPOCH":17652,"BSTAR":0.0003006872,"MEAN_MOTION_DOT":8.177e-5,"MEAN_MOTION_DDOT":0},{"OBJECT_NAME":"STARLINK-31206","OBJECT_ID":"2024-038F","EPOCH":"2026-03-09T09:54:57.307392","MEAN_MOTION":15.2757484,"ECCENTRICITY":4.644e-5,"INCLINATION":42.9983,"RA_OF_ASC_NODE":323.5845,"ARG_OF_PERICENTER":349.5799,"MEAN_ANOMALY":10.5043,"EPHEMERIS_TYPE":0,"CLASSIFICATION_TYPE":"U","NORAD_CAT_ID":59028,"ELEMENT_SET_NO":999,"REV_AT_EPOCH":11548,"BSTAR":-1.4306972e-5,"MEAN_MOTION_DOT":-6.55e-6,"MEAN_MOTION_DDOT":0}]
